[{"OBJECT_NAME":"TRANSPORTER-11 OBJECT A","OBJECT_ID":"2024-149A","EPOCH":"2026-03-09T17:54:54.302112","MEAN_MOTION":15.31141332,"ECCENTRICITY":0.00031096,"INCLINATION":97.378,"RA_OF_ASC_NODE":149.0949,"ARG_OF_PERICENTER":191.001,"MEAN_ANOMALY":169.1164,"EPHEMERIS_TYPE":0,"CLASSIFICATION_TYPE":"U","NORAD_CAT_ID":60468,"ELEMENT_SET_NO":999,"REV_AT_EPOCH":8683,"BSTAR":0.00036053677,"MEAN_MOTION_DOT":0.00010774,"MEAN_MOTION_DDOT":0},{"OBJECT_NAME":"STARLINK-35121","OBJECT_ID":"2025-216D","EPOCH":"2026-03-09T23:19:18.795648","MEAN_MOTION":15.30211221,"ECCENTRICITY":0.00011956,"INCLINATION":53.1603,"RA_OF_ASC_NODE":331.8053,"ARG_OF_PERICENTER":132.8659,"MEAN_ANOMALY":227.2443,"EPHEMERIS_TYPE":0,"CLASSIFICATION_TYPE":"U","NORAD_CAT_ID":65737,"ELEMENT_SET_NO":999,"REV_AT_EPOCH":2658,"BSTAR":0.0007909455,"MEAN_MOTION_DOT":0.00023147,"MEAN_MOTION_DDOT":0}]
